[{"OBJECT_NAME":"COSMOS 2463","OBJECT_ID":"2010-017A","EPOCH":"2026-03-09T23:23:18.911616","MEAN_MOTION":13.71658076,"ECCENTRICITY":0.00371628,"INCLINATION":82.9631,"RA_OF_ASC_NODE":322.6224,"ARG_OF_PERICENTER":46.7339,"MEAN_ANOMALY":324.8332,"EPHEMERIS_TYPE":0,"CLASSIFICATION_TYPE":"U","NORAD_CAT_ID":36519,"ELEMENT_SET_NO":999,"REV_AT_EPOCH":79433,"BSTAR":5.8605313e-5,"MEAN_MOTION_DOT":6.8e-7,"MEAN_MOTION_DDOT":0},{"OBJECT_NAME":"USA 40 R\/B DEB","OBJECT_ID":"1989-061BL","EPOCH":"2026-03-08T18:14:08.922336","MEAN_MOTION":10.32541686,"ECCENTRICITY":0.22838925,"INCLINATION":56.9874,"RA_OF_ASC_NODE":200.6595,"ARG_OF_PERICENTER":164.6797,"MEAN_ANOMALY":203.6986,"EPHEMERIS_TYPE":0,"CLASSIFICATION_TYPE":"U","NORAD_CAT_ID":23388,"ELEMENT_SET_NO":999,"REV_AT_EPOCH":7306,"BSTAR":0.026272074,"MEAN_MOTION_DOT":0.00054893,"MEAN_MOTION_DDOT":0}]
